# From MPEC 2022-S20
C/1995 O1 (Hale-Bopp),e,89.3202,282.6652,130.4099,176.9232,0.0004188,0.99496880,0.0000,03/29.6169/1997,2000,g -2.0,4.0
# From NK 1615
P/1996 R2 (Lagerkvist),e,2.6010,40.0084,333.3979,3.774569,0.1344011,0.31457921,183.5933,11/10.0/2022,2000,g 11.5,4.0
# From MPC 75703
P/1998 VS24 (LINEAR),e,5.0265,159.0388,244.6288,4.525296,0.1023844,0.24317714,179.6641,11/10.0/2022,2000,g 13.0,2.0
# From NK 731
P/1999 RO28 (LONEOS),e,7.5655,137.8705,231.3001,3.426485,0.1553928,0.67252917,191.4428,11/10.0/2022,2000,g 20.0,2.0
# From MPC 75704
P/1999 XN120 (Catalina),e,5.0298,285.2963,161.6836,4.179015,0.1153701,0.21041504,228.5750,11/10.0/2022,2000,g 13.5,2.0
# From NK 744
P/2000 R2 (LINEAR),e,11.6865,160.2856,176.5898,3.467696,0.1526310,0.53140957,189.4358,11/10.0/2022,2000,g 18.0,4.0
# From MPC 43019
P/2001 H5 (NEAT),e,8.3670,328.6838,224.7333,6.095908,0.0654857,0.59820347,169.2376,11/10.0/2022,2000,g 12.0,4.0
# From MPC 75704
P/2001 Q6 (NEAT),e,56.9114,22.1850,42.9387,7.958971,0.0438954,0.82336327,339.1328,11/10.0/2022,2000,g 13.5,4.0
# From MPC 47727
P/2002 EJ57 (LINEAR),e,4.9777,330.3067,167.2862,6.463218,0.0599834,0.59240525,96.3720,11/10.0/2022,2000,g 12.5,4.0
# From MPC109588
P/2002 T6 (NEAT-LINEAR),e,10.8526,206.0646,219.5383,7.732107,0.0458413,0.56260547,331.6806,11/10.0/2022,2000,g 10.5,4.0
# From MPC 75007
C/2002 VQ94 (LINEAR),e,70.6931,35.1429,99.9772,184.2995,0.0003939,0.96307272,2.4139,11/10.0/2022,2000,g  9.5,2.0
# From MPEC 2022-V95
P/2003 CC22 (Sheppard-Jewitt),e,6.4229,123.7031,37.0644,7.292109,0.0500523,0.42703963,351.6514,11/10.0/2022,2000,g  9.0,4.0
# From MPC 50354
P/2003 F2 (NEAT),e,11.6115,358.9923,192.2632,6.501831,0.0594498,0.54136866,65.0298,11/10.0/2022,2000,g 16.5,2.0
# From MPC 50139
P/2003 QX29 (NEAT),e,11.3936,264.5134,37.6660,8.015459,0.0434322,0.47253121,316.5436,11/10.0/2022,2000,g  8.5,4.0
# From MPC105235
P/2003 T12 (SOHO),e,11.0225,174.5858,219.7504,2.585421,0.2370867,0.77015180,217.3379,11/10.0/2022,2000,g 17.0,4.0
# From MPEC 2022-TA6
P/2004 A1 (LONEOS),e,10.5517,124.8581,21.1013,7.971327,0.0437933,0.31016722,293.0018,11/10.0/2022,2000,g  6.5,4.0
# From MPC 54558
P/2004 DO29 (Spacewatch-LINEAR),e,14.5310,147.3770,40.5041,7.296088,0.0500114,0.44129650,331.4075,11/10.0/2022,2000,g 13.5,2.0
# From MPC 54823
P/2004 FY140 (LINEAR),e,2.1348,326.7807,242.0983,4.907016,0.0906730,0.16786205,242.4095,11/10.0/2022,2000,g 12.5,2.0
# From MPC 53304
P/2004 R3 (LINEAR-NEAT),e,12.7820,305.3167,37.6725,4.763589,0.0947987,0.25561535,39.3968,11/10.0/2022,2000,g 14.5,4.0
# From MPC 55521
P/2004 V3 (Siding Spring),e,50.4438,356.1294,322.4901,7.129642,0.0517729,0.44591350,340.4257,11/10.0/2022,2000,g 11.5,4.0
# From MPC 75705
P/2004 V5 (LINEAR-Hill),e,19.3435,47.7816,87.5624,7.990363,0.0436369,0.44481910,284.1663,11/10.0/2022,2000,g  8.0,4.0
# From MPC 54164
P/2005 E1 (Tubbiolo),e,4.2631,335.5760,193.8844,7.050705,0.0526448,0.37560710,343.0316,11/10.0/2022,2000,g 10.0,4.0
# From MPC 79019
P/2005 J1 (McNaught),e,31.7384,268.8282,338.9279,3.571947,0.1459979,0.56901140,217.6407,11/10.0/2022,2000,g 16.5,4.0
# From MPC 74246
P/2005 L1 (McNaught),e,7.7273,138.2141,150.1295,3.991900,0.1235761,0.21256559,45.7337,11/10.0/2022,2000,g  9.5,4.0
# From MPC 75706
P/2005 S2 (Skiff),e,3.1356,161.2227,229.4377,8.004751,0.0435193,0.19857179,261.6575,11/10.0/2022,2000,g  7.5,4.0
# From MPC 75706
P/2005 SB216 (LONEOS),e,24.1146,1.1231,83.2414,7.145902,0.0515963,0.46466030,300.0177,11/10.0/2022,2000,g 12.0,2.0
# From MPC 73461
P/2005 T3 (Read),e,6.2238,27.6668,6.6813,7.588459,0.0471491,0.17539047,295.2440,11/10.0/2022,2000,g  9.0,4.0
# From MPC 73461
P/2005 T4 (SWAN),e,160.2690,25.9188,41.8377,9.358950,0.0344242,0.92979049,214.8425,11/10.0/2022,2000,g 15.0,4.0
# From MPC 75706
P/2005 T5 (Broughton),e,21.3793,57.0013,304.6956,7.280276,0.0501744,0.55265803,312.4724,11/10.0/2022,2000,g 11.0,4.0
# From MPC 75707
P/2006 HR30 (Siding Spring),e,31.8615,309.8305,117.3806,7.808648,0.0451690,0.84312745,262.4225,11/10.0/2022,2000,g 11.0,4.0
# From MPEC 2022-TA7
P/2007 A2 (Christensen),e,26.4828,300.9126,186.6921,6.336617,0.0617900,0.55836723,358.9177,11/10.0/2022,2000,g 13.5,4.0
# From MPC 75707
P/2007 C2 (Catalina),e,8.6068,275.2959,180.1736,6.999443,0.0532242,0.47215136,294.5816,11/10.0/2022,2000,g 10.0,4.0
# From MPC 84315
C/2007 D1 (LINEAR),e,41.5017,171.2313,339.7940,1188,0.0000241,0.99260492,0.0000,06/07.1923/2007,2000,g  3.5,4.0
# From MPC 82314
P/2007 K2 (Gibbs),e,7.6275,188.6345,347.3459,7.276256,0.0502160,0.68313629,284.1230,11/10.0/2022,2000,g 14.0,4.0
# From MPC 60925
P/2007 Q2 (Gilmore),e,10.2027,172.1532,162.8561,5.657609,0.0732411,0.67000844,52.2240,11/10.0/2022,2000,g 16.0,4.0
# From MPC 73462
P/2007 S1 (Zhao),e,5.9610,141.3502,245.2112,3.820278,0.1319963,0.33911378,4.5057,11/10.0/2022,2000,g 13.0,4.0
# From MPC 61994
P/2007 T2 (Kowalski),e,9.7521,3.3772,359.6658,3.045565,0.1854395,0.78567985,290.9051,11/10.0/2022,2000,g 18.5,4.0
# From MPC 75709
P/2008 L2 (Hill),e,25.8682,218.0174,141.2631,6.028143,0.0665930,0.61348700,347.8762,11/10.0/2022,2000,g 12.5,4.0
# From MPC 64114
P/2008 O3 (Boattini),e,32.3331,47.5635,341.1701,8.215247,0.0418575,0.69638519,220.7615,11/10.0/2022,2000,g 13.0,4.0
# From MPC 75710
P/2008 Y3 (McNaught),e,38.7793,262.8591,238.0385,8.047573,0.0431725,0.44588869,219.2425,11/10.0/2022,2000,g  8.5,4.0
# From MPC 75710
P/2009 B1 (Boattini),e,22.2364,297.0743,128.9036,6.737013,0.0563642,0.63563166,285.1090,11/10.0/2022,2000,g 13.0,4.0
# From MPC 66466
C/2009 G1 (STEREO),e,108.4997,120.5648,175.5109,466.0302,0.0000980,0.99755514,0.0000,04/18.4387/2009,2000,g  9.0,4.0
# From MPC 75710
P/2009 O3 (Hill),e,16.2889,183.6849,154.4918,7.766911,0.0455336,0.68775142,223.6872,11/10.0/2022,2000,g 12.5,4.0
# From MPC 68902
P/2009 Q5 (McNaught),e,40.9841,160.2730,209.1105,7.429619,0.0486692,0.60985615,233.8289,11/10.0/2022,2000,g 10.0,4.0
# From MPC112389
P/2009 T2 (La Sagra),e,27.6063,215.9007,216.3250,7.718448,0.0459631,0.76647320,215.9027,11/10.0/2022,2000,g 14.0,4.0
# From MPC105235
P/2009 WX51 (Catalina),e,9.5948,31.5637,118.2630,3.082793,0.1820906,0.73938070,131.8646,11/10.0/2022,2000,g 19.0,2.0
# From MPC 74247
P/2009 Y2 (Kowalski),e,29.9627,262.0434,172.1346,6.549526,0.0588016,0.63679672,272.7800,11/10.0/2022,2000,g 13.0,4.0
# From MPC 75711
P/2010 A3 (Hill),e,14.8155,63.6286,42.2858,6.086968,0.0656300,0.73375025,304.0297,11/10.0/2022,2000,g 14.0,4.0
# From MPC 75008
P/2010 C1 (Scotti),e,9.1252,141.8685,3.3571,7.105475,0.0520373,0.26054443,247.6926,11/10.0/2022,2000,g  9.5,4.0
# From MPC 75008
P/2010 D2 (WISE),e,57.0991,319.8829,119.9290,6.721360,0.0565612,0.45144036,263.6917,11/10.0/2022,2000,g 16.0,4.0
# From MPC 75009
P/2010 E2 (Jarnac),e,15.3850,177.8200,8.2991,8.640233,0.0388075,0.71942984,179.0723,11/10.0/2022,2000,g 14.0,4.0
# From MPC 72851
P/2010 H2 (Vales),e,14.2792,64.1865,128.0175,3.832057,0.1313881,0.19666469,248.1913,11/10.0/2022,2000,g  6.0,4.0
# From MPC 70361
P/2010 H3 (SOHO),e,23.0841,77.1059,26.1351,3.036250,0.1862935,0.98538293,0.0000,02/07.8600/2021,2000,g 20.0,2.0
# From MPC 73463
P/2010 H4 (Scotti),e,2.3177,44.7253,179.3051,6.600562,0.0581209,0.26614361,263.8872,11/10.0/2022,2000,g 10.5,4.0
# From MPC 74637
P/2010 H5 (Scotti),e,14.0571,24.7929,174.7179,7.171196,0.0513236,0.15251533,237.1829,11/10.0/2022,2000,g 13.0,2.0
# From MPC 98558
P/2010 J3 (McMillan),e,13.2640,106.4698,157.5755,8.980514,0.0366229,0.72551539,163.3399,11/10.0/2022,2000,g 11.0,4.0
# From MPC 84315
P/2010 JC81 (WISE),e,38.8236,30.8691,12.4286,8.105750,0.0427085,0.77791983,180.0939,11/10.0/2022,2000,g  9.0,4.0
# From MPC 74248
P/2010 T2 (PANSTARRS),e,7.8881,58.5306,352.6010,5.573566,0.0749039,0.32376284,323.1963,11/10.0/2022,2000,g 11.5,4.0
# From MPC 98558
P/2010 TO20 (LINEAR-Grauer),e,2.4787,43.2837,267.5307,5.833139,0.0699601,0.05567090,358.6843,11/10.0/2022,2000,g  9.0,4.0
# From MPC 82316
P/2010 U1 (Boattini),e,8.2206,280.6790,86.2688,6.501338,0.0594566,0.24915121,276.9986,11/10.0/2022,2000,g  9.5,4.0
# From MPEC 2022-OB6
C/2010 U3 (Boattini),e,55.5558,42.9938,88.0389,2597,0.0000074,0.99674969,0.0000,02/25.2945/2019,2000,g  1.0,4.0
# From MPC 79021
P/2010 UH55 (Spacewatch),e,8.0381,232.9033,225.1448,6.654613,0.0574143,0.56375565,243.2855,11/10.0/2022,2000,g 11.0,4.0
# From MPC 75009
P/2010 WK (LINEAR),e,11.4016,11.3334,40.9827,5.762294,0.0712543,0.69051388,315.8657,11/10.0/2022,2000,g 14.5,2.0
# From MPC 84021
P/2011 C2 (Gibbs),e,10.8874,12.1202,160.4880,7.412585,0.0488371,0.26917627,194.4356,11/10.0/2022,2000,g  9.0,4.0
# From MPC 79866
P/2011 FR143 (Lemmon),e,15.9757,190.9492,349.9262,6.863779,0.0548099,0.45067800,234.8023,11/10.0/2022,2000,g 14.0,2.0
# From MPC 82317
P/2011 JB15 (Spacewatch-Boattini),e,19.1462,153.5890,111.0453,7.366542,0.0492956,0.31592383,194.7454,11/10.0/2022,2000,g  9.0,4.0
# From MPC 87913
P/2011 N1 (ASH),e,35.7679,77.5775,330.3898,6.244463,0.0631628,0.54504319,241.4654,11/10.0/2022,2000,g 11.5,4.0
# From MPC 75714
P/2011 NO1 (Elenin),e,15.2445,295.8270,263.7073,5.532164,0.0757463,0.77461957,327.2760,11/10.0/2022,2000,g 15.0,4.0
# From MPEC 2022-ED3
P/2011 P1 (McNaught),e,5.6609,4.2312,349.1469,7.459204,0.0483799,0.32765749,216.9026,11/10.0/2022,2000,g  9.0,4.0
# From MPEC 2022-HC2
P/2011 S1 (Gibbs),e,2.6875,218.8277,192.5031,8.583237,0.0391947,0.20151971,117.9316,11/10.0/2022,2000,g  8.0,4.0
# From MPC 79022
P/2011 UA134 (Spacewatch-PANSTARRS),e,10.4404,40.3984,32.4023,5.609757,0.0741802,0.62978996,298.4289,11/10.0/2022,2000,g 17.5,4.0
# From MPC 77406
P/2011 V1 (Boattini),e,7.3749,46.7820,269.3819,3.857216,0.1301048,0.55007836,195.1167,11/10.0/2022,2000,g 15.5,4.0
# From MPC 82718
P/2011 W1 (PANSTARRS),e,3.7186,161.7848,282.7831,4.666247,0.0977806,0.28805573,26.8988,11/10.0/2022,2000,g 11.5,4.0
# From MPC 79342
P/2011 Y2 (Boattini),e,6.3778,309.3282,131.9508,6.237952,0.0632617,0.71030554,246.8834,11/10.0/2022,2000,g 15.0,4.0
# From MPEC 2022-K19
P/2012 B1 (PANSTARRS),e,7.6101,36.2166,162.3775,6.531849,0.0590405,0.40898299,201.3236,11/10.0/2022,2000,g  9.0,4.0
